{
    "links": {
        "self": "http://www.neowsapp.com/rest/v1/neo/3467316?api_key=iIulBulltgU6a56xZRHN4H3l9WmuAYTsLGpBGhQ2"
    },
    "id": "3467316",
    "neo_reference_id": "3467316",
    "name": "(2009 SH15)",
    "designation": "2009 SH15",
    "nasa_jpl_url": "http://ssd.jpl.nasa.gov/sbdb.cgi?sstr=3467316",
    "absolute_magnitude_h": 24.5,
    "estimated_diameter": {
        "kilometers": {
            "estimated_diameter_min": 0.0334622374,
            "estimated_diameter_max": 0.0748238376
        },
        "meters": {
            "estimated_diameter_min": 33.4622374455,
            "estimated_diameter_max": 74.8238376074
        },
        "miles": {
            "estimated_diameter_min": 0.0207924639,
            "estimated_diameter_max": 0.0464933628
        },
        "feet": {
            "estimated_diameter_min": 109.7842471007,
            "estimated_diameter_max": 245.4850393757
        }
    },
    "is_potentially_hazardous_asteroid": false,
    "close_approach_data": [
        {
            "close_approach_date": "2009-09-22",
            "close_approach_date_full": "2009-Sep-22 12:20",
            "epoch_date_close_approach": 1253622000000,
            "relative_velocity": {
                "kilometers_per_second": "8.6944315078",
                "kilometers_per_hour": "31299.9534279384",
                "miles_per_hour": "19448.5738397098"
            },
            "miss_distance": {
                "astronomical": "0.0224679895",
                "lunar": "8.7400479155",
                "kilometers": "3361163.372382365",
                "miles": "2088530.073172037"
            },
            "orbiting_body": "Earth"
        },
        {
            "close_approach_date": "2014-08-25",
            "close_approach_date_full": "2014-Aug-25 13:27",
            "epoch_date_close_approach": 1408973220000,
            "relative_velocity": {
                "kilometers_per_second": "15.6749811995",
                "kilometers_per_hour": "56429.9323181647",
                "miles_per_hour": "35063.3654451396"
            },
            "miss_distance": {
                "astronomical": "0.2864484683",
                "lunar": "111.4284541687",
                "kilometers": "42852080.722442521",
                "miles": "26627048.2482919498"
            },
            "orbiting_body": "Earth"
        }
    ],
    "orbital_data": {
        "orbit_id": "11",
        "orbit_determination_date": "2017-04-06 08:59:55",
        "first_observation_date": "2009-09-20",
        "last_observation_date": "2009-09-25",
        "data_arc_in_days": 5,
        "observations_used": 40,
        "orbit_uncertainty": "7",
        "minimum_orbit_intersection": ".0195218",
        "jupiter_tisserand_invariant": "3.885",
        "epoch_osculation": "2459000.5",
        "eccentricity": ".4531447953590902",
        "semi_major_axis": "1.830137693933851",
        "inclination": "9.750319907432097",
        "ascending_node_longitude": "358.9565877667202",
        "orbital_period": "904.3240395149869",
        "perihelion_distance": "1.000820323137239",
        "perihelion_argument": "22.80703524589735",
        "aphelion_distance": "2.659455064730463",
        "perihelion_time": "2458734.078213216958",
        "mean_anomaly": "106.05915473986",
        "mean_motion": ".3980873937544308",
        "equinox": "J2000",
        "orbit_class": {
            "orbit_class_type": "APO",
            "orbit_class_description": "Near-Earth asteroid orbits which cross the Earth’s orbit similar to that of 1862 Apollo",
            "orbit_class_range": "a (semi-major axis) > 1.0 AU; q (perihelion) < 1.017 AU"
        }
    },
    "is_sentry_object": false
}